[{"OBJECT_NAME":"TIANMU-1 12","OBJECT_ID":"2023-205B","EPOCH":"2026-03-09T23:16:21.235872","MEAN_MOTION":15.25812065,"ECCENTRICITY":0.00067383,"INCLINATION":97.3538,"RA_OF_ASC_NODE":91.8946,"ARG_OF_PERICENTER":353.283,"MEAN_ANOMALY":6.8317,"EPHEMERIS_TYPE":0,"CLASSIFICATION_TYPE":"U","NORAD_CAT_ID":58646,"ELEMENT_SET_NO":999,"REV_AT_EPOCH":12237,"BSTAR":0.00029269543,"MEAN_MOTION_DOT":7.417e-5,"MEAN_MOTION_DDOT":0},{"OBJECT_NAME":"STARLINK-31942","OBJECT_ID":"2024-100Q","EPOCH":"2026-03-08T05:14:21.132096","MEAN_MOTION":15.27567948,"ECCENTRICITY":9.929e-5,"INCLINATION":42.9999,"RA_OF_ASC_NODE":133.5544,"ARG_OF_PERICENTER":280.9043,"MEAN_ANOMALY":79.1696,"EPHEMERIS_TYPE":0,"CLASSIFICATION_TYPE":"U","NORAD_CAT_ID":59899,"ELEMENT_SET_NO":999,"REV_AT_EPOCH":10092,"BSTAR":-2.3153262e-5,"MEAN_MOTION_DOT":-8.99e-6,"MEAN_MOTION_DDOT":0}]
